Hostname,IP,HTTPS,Country,City,Long,Lat
cyewmen.com,184.168.131.241,0,US,Scottsdale,-111.8906,33.6119
coxemen.com,198.54.117.200,0,US,Los Angles,,
kudomen.com,209.99.40.223,0,US,Austin,-97.8759,30.3205
kudomen.com,209.99.40.222,0,US,Austin,-97.8759,30.3205
wakumen.com,69.16.230.43,0,US,Lansing,-84.636,42.7257
vtwomen.com,208.91.197.46,0,VG,Road,,
yadimen.com,50.63.202.4,0,US,Scottsdale,-111.8906,33.6119
aigemen.com,23.228.109.38,0,US,Los Angles,,
cyewmen.com,50.63.202.29,0,US,Scottsdale,-111.8906,33.6119
fregmen.com,54.152.59.251,0,US,Ashburn,-77.4728,39.0481
HDRedirect-LB3-890977680.us-east-1.elb.amazonaws.com,54.152.137.87,0,US,Ashburn,-77.4728,39.0481
rjwpncspruhjnpiud.com,159.253.28.197,0,GB,London,-0.0955,51.5092
bknllsnbfzqr.com,198.54.117.200,0,US,Los Angles,,
qvyhpyyo.com,198.54.117.200,0,US,Los Angles,,
tzbovsjrhwqd.com,198.54.117.200,0,US,Los Angles,,
moltytl.com,50.63.202.78,0,US,Scottsdale,-111.8906,33.6119
urizadek.com,184.168.221.79,0,US,Scottsdale,-111.8906,33.6119
urizadek.com,184.168.221.68,0,US,Scottsdale,-111.8906,33.6119
moltytl.com,50.63.202.90,0,US,Scottsdale,-111.8906,33.6119
myftisdtdxduk17ewbsdtg33ixormqp32k47.com,192.64.119.147,0,US,Los Angles,,
xwtibspfabkersymrgv.us,110.96.203.234,0,CN,Beijing,116.3883,39.9289
mijygutqw.us,104.208.16.79,0,US,Des,,
bhghfmxnsqodobwkl.us,168.2.9.97,0,US,Houston,-95.4188,29.7176
fxdvccsdkxgbxniss.us,174.58.39.66,0,US,Sarasota,-82.4754,27.3633
mncphxwojayqooqa.us,105.224.7.42,0,ZA,Port,,
diumiu.com,47.94.106.12,0,CN,Hangzhou,120.1614,30.2936
mffhdthi.com,162.255.119.58,0,US,Los Angles,,
rjvoupbixei.com,162.255.119.246,0,US,Los Angles,,
julxkik.com,162.255.119.211,0,US,Los Angles,,
gbzhedl.com,192.64.119.53,0,US,Los Angles,,
ndarch.com,46.30.213.255,0,DK,Copenhagen,12.5833,55.6667
countryoutside.net,198.54.117.200,0,US,Los Angles,,
crowdexplain.net,198.54.117.200,0,US,Los Angles,,
crowdgarden.net,108.167.189.107,0,US,Houston,-95.4739,29.8301
mffhdthi.com,162.255.119.58,0,US,Los Angles,,
wrrtbp.com,160.124.242.189,0,ZA,Lynnwood,28.2651,-25.7597
chargeoclock.net,198.54.117.200,0,US,Los Angles,,
classkitchen.net,74.220.199.6,0,US,Orem,-111.6761,40.2968
appleforest.net,69.16.230.43,0,US,Lansing,-84.636,42.7257
wzgrsenansnan.org,198.54.117.200,0,US,Los Angles,,
chargeforward.net,205.178.189.129,0,US,Jacksonville,-81.5401,30.1438
weemak.com,162.144.177.218,0,US,Provo,-111.6133,40.2181
siyuki.com,107.183.62.8,0,US,Los Angles,,
ueqizqtvrceyklrn.com,192.64.119.166,0,US,Los Angles,,
ckuociowoxtt.com,198.54.117.200,0,US,Los Angles,,
rjwpncspruhjnpiud.com,159.253.28.197,0,GB,London,-0.0955,51.5092
lyryx.eu,52.51.4.86,0,IE,Dublin,-6.2595,53.3389
lyryx.eu,52.208.130.172,0,IE,Dublin,-6.2595,53.3389
galip.eu,93.208.103.24,0,DE,Neu-ulm,10.0167,48.4
lyryx.eu,54.72.144.6,0,IE,Dublin,-6.2595,53.3389
lyryx.eu,54.229.195.214,0,IE,Dublin,-6.2595,53.3389
lyryx.eu,52.215.118.91,0,IE,Dublin,-6.2595,53.3389
lyryx.eu,52.48.158.76,0,IE,Dublin,-6.2595,53.3389
lyryx.eu,54.77.244.12,0,IE,Dublin,-6.2595,53.3389
lyryx.eu,54.171.33.245,0,IE,Dublin,-6.2595,53.3389
drivehome.net,184.168.221.12,0,US,Scottsdale,-111.8906,33.6119
buildinglength.net,198.54.117.200,0,US,Los Angles,,
movementnotice.net,52.4.209.250,0,US,Ashburn,-77.4728,39.0481
storyhouse.net,184.168.131.241,0,US,Scottsdale,-111.8906,33.6119
subjectobject.net,104.27.175.178,0,US,San Fransisco,,
sweetthird.net,18.215.128.143,0,US,Cambridge,-71.1028,42.3646
drivehome.net,184.168.221.5,0,US,Scottsdale,-111.8906,33.6119
sellgift.net,160.202.88.15,0,US,Mooresville,-80.8908,35.5675
sweetthird.net,52.4.209.250,0,US,Ashburn,-77.4728,39.0481
sweetthird.net,18.213.250.117,0,US,Cambridge,-71.1028,42.3646
HDRedirect-LB3-890977680.us-east-1.elb.amazonaws.com,54.152.137.87,0,US,Ashburn,-77.4728,39.0481
HDRedirect-LB3-890977680.us-east-1.elb.amazonaws.com,52.4.66.100,0,US,Ashburn,-77.4728,39.0481
insamertojertoq.cc,18.213.250.117,0,US,Cambridge,-71.1028,42.3646
insamertojertoq.cc,18.215.128.143,0,US,Cambridge,-71.1028,42.3646
smimea.com,141.35.60.60,0,DE,Jena,11.5868,50.9326
facemine.net,18.213.250.117,0,US,Cambridge,-71.1028,42.3646
facemine.net,18.215.128.143,0,US,Cambridge,-71.1028,42.3646
gainheight.net,198.54.117.200,0,US,Los Angles,,
sellimportant.net,52.4.209.250,0,US,Ashburn,-77.4728,39.0481
windowshout.net,198.54.117.200,0,US,Los Angles,,
sweetmodern.net,52.4.209.250,0,US,Ashburn,-77.4728,39.0481
lyryx.eu,52.30.131.17,0,IE,Dublin,-6.2595,53.3389
galip.eu,93.208.126.174,0,DE,Reutlingen,9.2232,48.511
lomeia.com,118.193.223.154,0,CN,Shanghai,121.3997,31.0456
xovape.com,184.168.221.104,0,US,Scottsdale,-111.8906,33.6119
HDRedirect-LB3-890977680.us-east-1.elb.amazonaws.com,54.152.137.87,0,US,Ashburn,-77.4728,39.0481
ipgmia.com,74.208.236.109,0,US,Wayne,-75.4083,40.0548
wafaar.com,107.180.63.54,0,US,Scottsdale,-111.8906,33.6119
mereia.com,50.63.202.8,0,US,Scottsdale,-111.8906,33.6119
gatynes.com,199.191.50.185,0,VG,Road,,
fabbay.com,172.245.77.143,0,US,Buffalo,-78.8781,42.8864
192.198.91.198,192.198.91.198,0,US,Lenoir,-81.5513,35.9726
192.198.91.198,192.198.91.198,0,US,Lenoir,-81.5513,35.9726
85.207.155.165,85.207.155.165,0,CZ,Novy,,
greenboost.zzz.com.ua,95.211.16.66,0,NL,Den,,
www.skinssite.pro,104.31.74.23,0,US,San Fransisco,,
www.skinssite.pro,104.31.75.23,0,US,San Fransisco,,
skinssite.pro,104.31.74.23,0,US,San Fransisco,,
www.skinscommunity.pro,104.18.43.48,0,US,San Fransisco,,
www.csgofancy.com,104.24.103.150,0,US,San Fransisco,,
www.csgofancy.com,104.24.102.150,0,US,San Fransisco,,
skinssite.pro,104.31.75.23,0,US,San Fransisco,,
www.skinscommunity.pro,104.18.42.48,0,US,San Fransisco,,
skinscommunity.pro,104.18.43.48,0,US,San Fransisco,,
csgofancy.com,104.24.102.150,0,US,San Fransisco,,
4folkoptions.info,104.18.43.8,0,US,San Fransisco,,
4folkoptions.info,104.18.43.8,0,US,San Fransisco,,
optisaving.com,35.198.140.181,0,US,Ann,,
225.106.227.35.bc.googleusercontent.com,35.227.106.225,0,US,Ann,,
47.74.44.209,47.74.44.209,1,US,San Fransisco,,
47.74.44.209,47.74.44.209,1,US,San Fransisco,,
92.38.132.51,92.38.132.51,1,RU,Reutov,37.8575,55.7611
92.38.132.51,92.38.132.51,1,RU,Reutov,37.8575,55.7611
145.249.107.72,145.249.107.72,1,ES,Madrid,-3.7026,40.4165
fluorescent.cc,220.246.74.87,0,HK,Central,,
datos.com.tw,124.150.132.22,0,TW,Taipei,121.4966,25.0418
divergentsight.net,208.113.186.94,0,US,Brea,-117.8612,33.9269
closhlab.com,69.65.3.251,0,US,Arlington,,
downinthecountry.com,173.233.69.165,0,US,Latham,-73.7804,42.7526
brisaproducciones.com,132.148.90.171,0,US,Scottsdale,-111.8906,33.6119
eatsleepdrift.net,198.15.116.226,0,US,Tempe,-111.9171,33.4357
themansionmastermind.com,198.54.117.200,0,US,Los Angles,,
04887411.win,198.54.117.200,0,US,Los Angles,,
s2.cdn-edge.net,198.54.117.200,0,US,Los Angles,,
aamericanasx.cuccfree.com,198.54.117.200,0,US,Los Angles,,
bothshirt.net,198.54.117.200,0,US,Los Angles,,
clevelandmadelina.net,198.54.117.200,0,US,Los Angles,,
sims3-downloads.com,198.54.117.200,0,US,Los Angles,,
aircanada-signup.us,198.54.117.200,0,US,Los Angles,,
searchmacandpc2updating.bid,198.54.117.200,0,US,Los Angles,,
4folkoptions.info,104.18.42.8,0,US,San Fransisco,,
dmni.ru,5.101.152.143,0,RU,Saint,,
new-ware.com,205.134.252.218,0,US,Los Angles,,
denmarkheating.net,199.204.248.107,0,US,Saint,,
denmarkheating.net,199.204.248.107,0,US,Saint,,
denmarkheating.net,199.204.248.107,0,US,Saint,,
optisaving.com,35.198.140.181,0,US,Ann,,
kaco-newenargy.com,104.219.248.16,0,US,Los Angles,,
